GLOBALSTAR M063 [+]     
1 26081U 00008A   23288.96315682 -.00000070  00000+0  18487-3 0  9996
2 26081  51.9943 278.6482 0004241 225.7652 149.4004 11.86145689 85168
GLOBALSTAR M062 [-]     
1 26082U 00008B   23288.78063529 -.00000066  00000+0  23050-3 0  9994
2 26082  51.9834  90.7285 0006024 244.9380 219.6816 12.43418963420687
GLOBALSTAR M064 [-]     
1 26084U 00008D   23288.65909028 -.00000073  00000+0  13865-3 0  9996
2 26084  52.0062  25.4748 0001008 343.6001  16.4799 11.88510350 94509
GLOBALSTAR M065 [+]     
1 31571U 07020A   23288.96365267 -.00000035  00000+0  38473-3 0  9999
2 31571  51.9885 283.5024 0010508  38.7011 338.9177 12.61954940756369
GLOBALSTAR M069 [+]     
1 31573U 07020C   23288.33653247 -.00000072  00000+0  17815-3 0  9998
2 31573  51.9942 241.5565 0000481  28.5229 136.5184 12.62283128757406
GLOBALSTAR M072 [+]     
1 31574U 07020D   23288.88827447 -.00000067  00000+0  20401-3 0  9993
2 31574  52.0100 335.5982 0000417 106.9927  63.8926 12.62266521755746
GLOBALSTAR M071 [P]     
1 31576U 07020F   23288.60227693 -.00000079  00000+0  13565-3 0  9998
2 31576  52.0055 245.7234 0000078 306.8558 224.2305 12.62270079418623
